SPACEMOBILE-003         
1 61045U 24163A   26195.49041066  .00000552  00000+0  39467-4 0  9999
2 61045  52.9669 183.8848 0004710 191.1614 168.9277 15.20702842101924
SPACEMOBILE-005         
1 61046U 24163B   26195.40813868  .00001133  00000+0  65582-4 0  9991
2 61046  52.9761 184.2104 0008672 193.5101 166.5662 15.20719732101902
SPACEMOBILE-001         
1 61047U 24163C   26195.60365995  .00000161  00000+0  21930-4 0  9996
2 61047  52.9737 183.0227 0007257 191.6919 168.3908 15.20740619101937
SPACEMOBILE-002         
1 61048U 24163D   26195.98185478  .00004016  00000+0  19447-3 0  9996
2 61048  52.9774 181.3232 0006031 191.1381 168.9481 15.20783994101994
SPACEMOBILE-004         
1 61049U 24163E   26193.40140888  .00012717  00000+0  58302-3 0  9998
2 61049  52.9682 192.9673 0006853 216.7757 143.2768 15.20795560101607
SPACEMOBILE-001 DEB     
1 62369U 24163F   26195.91872742  .00004772  00000+0  14768-3 0  9993
2 62369  52.9932 148.8231 0005718 251.8602 108.1777 15.35385449 90760
SPACEMOBILE-002 DEB     
1 62370U 24163G   26195.12044399  .00012852  00000+0  28811-3 0  9999
2 62370  52.9418 136.7687 0004543 281.7902  78.2592 15.43792576102524
SPACEMOBILE-003 DEB     
1 62371U 24163H   26195.28242334  .00011842  00000+0  28684-3 0  9992
2 62371  52.9689 142.8815 0005454 233.2707 126.7796 15.41541404 96069
SPACEMOBILE-004 DEB     
1 62372U 24163J   26195.56000003  .00007807  00000+0  19754-3 0  9993
2 62372  52.9840 141.2133 0002705 261.7959  98.2738 15.40752876 99176
SPACEMOBILE-005 DEB     
1 62373U 24163K   26195.28960643  .00006052  00000+0  18863-3 0  9999
2 62373  52.9736 156.6764 0005656 226.4718 133.5812 15.34648192102281
SPACEMOBILE-006         
1 67232U 25309A   26195.35532883  .00000571  00000+0  42569-4 0  9991
2 67232  52.9935 207.1822 0010178 212.4448 147.5920 15.18652187 30723
SPACEMOBILE-008         
1 69589U 26139A   26195.55824432 -.00000080  00000+0  12477-4 0  9997
2 69589  52.9947 138.2992 0005050  54.8997 305.2467 15.12801501  4129
SPACEMOBILE-009         
1 69590U 26139B   26195.56016190 -.00000039  00000+0  14846-4 0  9990
2 69590  52.9938 138.3056 0005292  50.8296 309.3164 15.12694817  4128
SPACEMOBILE-010         
1 69591U 26139C   26195.56320446  .00000106  00000+0  23070-4 0  9996
2 69591  52.9945 138.3273 0005220  42.8328 317.3069 15.12526901  4138
